NOAA 18                 
1 28654U 05018A   26099.82440035  .00000053  00000+0  51194-4 0  9992
2 28654  98.8119 180.4895 0013923 349.7116  10.3770 14.13717580 76656
NOAA 19                 
1 33591U 09005A   26099.81114694  .00000042  00000+0  46173-4 0  9995
2 33591  98.9553 170.6259 0013140 220.2386 139.7814 14.13463206884827
SUOMI NPP               
1 37849U 11061A   26099.82771478  .00000077  00000+0  57561-4 0  9991
2 37849  98.7906  41.1891 0002257 133.6766 226.4597 14.19502468748749
NOAA 20 (JPSS-1)        
1 43013U 17073A   26099.84178490  .00000081  00000+0  59515-4 0  9993
2 43013  98.7727  39.9264 0002109  95.5203 264.6214 14.19544593434777
