[{"OBJECT_NAME":"NOAA 18","OBJECT_ID":"2005-018A","EPOCH":"2026-04-09T19:47:08.190240","MEAN_MOTION":14.1371758,"ECCENTRICITY":0.0013923,"INCLINATION":98.8119,"RA_OF_ASC_NODE":180.4895,"ARG_OF_PERICENTER":349.7116,"MEAN_ANOMALY":10.377,"EPHEMERIS_TYPE":0,"CLASSIFICATION_TYPE":"U","NORAD_CAT_ID":28654,"ELEMENT_SET_NO":999,"REV_AT_EPOCH":7665,"BSTAR":5.1194e-5,"MEAN_MOTION_DOT":5.3e-7,"MEAN_MOTION_DDOT":0},{"OBJECT_NAME":"NOAA 19","OBJECT_ID":"2009-005A","EPOCH":"2026-04-09T19:28:03.095616","MEAN_MOTION":14.13463206,"ECCENTRICITY":0.001314,"INCLINATION":98.9553,"RA_OF_ASC_NODE":170.6259,"ARG_OF_PERICENTER":220.2386,"MEAN_ANOMALY":139.7814,"EPHEMERIS_TYPE":0,"CLASSIFICATION_TYPE":"U","NORAD_CAT_ID":33591,"ELEMENT_SET_NO":999,"REV_AT_EPOCH":88482,"BSTAR":4.6173e-5,"MEAN_MOTION_DOT":4.2e-7,"MEAN_MOTION_DDOT":0},{"OBJECT_NAME":"SUOMI NPP","OBJECT_ID":"2011-061A","EPOCH":"2026-04-09T19:51:54.556992","MEAN_MOTION":14.19502468,"ECCENTRICITY":0.0002257,"INCLINATION":98.7906,"RA_OF_ASC_NODE":41.1891,"ARG_OF_PERICENTER":133.6766,"MEAN_ANOMALY":226.4597,"EPHEMERIS_TYPE":0,"CLASSIFICATION_TYPE":"U","NORAD_CAT_ID":37849,"ELEMENT_SET_NO":999,"REV_AT_EPOCH":74874,"BSTAR":5.7561e-5,"MEAN_MOTION_DOT":7.7e-7,"MEAN_MOTION_DDOT":0},{"OBJECT_NAME":"NOAA 20 (JPSS-1)","OBJECT_ID":"2017-073A","EPOCH":"2026-04-09T20:12:10.215360","MEAN_MOTION":14.19544593,"ECCENTRICITY":0.0002109,"INCLINATION":98.7727,"RA_OF_ASC_NODE":39.9264,"ARG_OF_PERICENTER":95.5203,"MEAN_ANOMALY":264.6214,"EPHEMERIS_TYPE":0,"CLASSIFICATION_TYPE":"U","NORAD_CAT_ID":43013,"ELEMENT_SET_NO":999,"REV_AT_EPOCH":43477,"BSTAR":5.9515e-5,"MEAN_MOTION_DOT":8.1e-7,"MEAN_MOTION_DDOT":0}]
